IRIDIUM 39              
1 25042U 97069D   25142.58132895  .00000539  00000+0  13599-3 0  9995
2 25042  86.3946 222.1011 0019057  39.0297 321.2278 14.49192498445258
IRIDIUM 38              
1 25043U 97069E   25142.56347876  .00000399  00000+0  12531-3 0  9990
2 25043  86.3969 243.9291 0003060 134.7678 225.3769 14.38096782442273
IRIDIUM 42              
1 25077U 97077A   25142.53822627  .00000352  00000+0  11371-3 0  9995
2 25077  86.3966 250.0791 0002184 114.8019 245.3405 14.36332538437515
IRIDIUM 44              
1 25078U 97077B   25142.28397732  .00000403  00000+0  12110-3 0  9991
2 25078  86.3983 232.1769 0004118 103.5236 256.6422 14.40222646439975
IRIDIUM 45              
1 25104U 97082A   25142.28222506  .00019533  00000+0  70788-3 0  9992
2 25104  86.3596  60.4621 0122089  69.2280 292.1994 15.21364306448103
IRIDIUM 24              
1 25105U 97082B   25142.35978086  .00000538  00000+0  15770-3 0  9997
2 25105  86.3891  91.2555 0012081 152.8735 207.3099 14.42074763439497
IRIDIUM 51              
1 25262U 98018A   25142.54290097  .00038462  00000+0  89172-3 0  9995
2 25262  86.3843  68.5140 0088633 351.5027   8.4718 15.38126211443083
IRIDIUM 57              
1 25273U 98019B   25142.52695627  .00000339  00000+0  11028-3 0  9991
2 25273  86.3967 156.0114 0002315  92.4658 267.6804 14.35876971421105
