<?xml version="1.0" encoding="UTF-8"?>
<ndm xmlns:xsi="http://www.w3.org/2001/XMLSchema-instance" xsi:noNamespaceSchemaLocation="https://sanaregistry.org/r/ndmxml_unqualified/ndmxml-2.0.0-master-2.0.xsd">
<omm id="CCSDS_OMM_VERS" version="2.0">
<header><CREATION_DATE/><ORIGINATOR/></header><body><segment><metadata><OBJECT_NAME>IRIDIUM 39</OBJECT_NAME><OBJECT_ID>1997-069D</OBJECT_ID><CENTER_NAME>EARTH</CENTER_NAME><REF_FRAME>TEME</REF_FRAME><TIME_SYSTEM>UTC</TIME_SYSTEM><MEAN_ELEMENT_THEORY>SGP4</MEAN_ELEMENT_THEORY></metadata><data><meanElements><EPOCH>2025-05-22T13:57:06.821280</EPOCH><MEAN_MOTION>14.49192498</MEAN_MOTION><ECCENTRICITY>.0019057</ECCENTRICITY><INCLINATION>86.3946</INCLINATION><RA_OF_ASC_NODE>222.1011</RA_OF_ASC_NODE><ARG_OF_PERICENTER>39.0297</ARG_OF_PERICENTER><MEAN_ANOMALY>321.2278</MEAN_ANOMALY></meanElements><tleParameters><EPHEMERIS_TYPE>0</EPHEMERIS_TYPE><CLASSIFICATION_TYPE>U</CLASSIFICATION_TYPE><NORAD_CAT_ID>25042</NORAD_CAT_ID><ELEMENT_SET_NO>999</ELEMENT_SET_NO><REV_AT_EPOCH>44525</REV_AT_EPOCH><BSTAR>.13599E-3</BSTAR><MEAN_MOTION_DOT>.539E-5</MEAN_MOTION_DOT><MEAN_MOTION_DDOT>0</MEAN_MOTION_DDOT></tleParameters></data></segment></body></omm>
<omm id="CCSDS_OMM_VERS" version="2.0">
<header><CREATION_DATE/><ORIGINATOR/></header><body><segment><metadata><OBJECT_NAME>IRIDIUM 38</OBJECT_NAME><OBJECT_ID>1997-069E</OBJECT_ID><CENTER_NAME>EARTH</CENTER_NAME><REF_FRAME>TEME</REF_FRAME><TIME_SYSTEM>UTC</TIME_SYSTEM><MEAN_ELEMENT_THEORY>SGP4</MEAN_ELEMENT_THEORY></metadata><data><meanElements><EPOCH>2025-05-22T13:31:24.564864</EPOCH><MEAN_MOTION>14.38096782</MEAN_MOTION><ECCENTRICITY>.000306</ECCENTRICITY><INCLINATION>86.3969</INCLINATION><RA_OF_ASC_NODE>243.9291</RA_OF_ASC_NODE><ARG_OF_PERICENTER>134.7678</ARG_OF_PERICENTER><MEAN_ANOMALY>225.3769</MEAN_ANOMALY></meanElements><tleParameters><EPHEMERIS_TYPE>0</EPHEMERIS_TYPE><CLASSIFICATION_TYPE>U</CLASSIFICATION_TYPE><NORAD_CAT_ID>25043</NORAD_CAT_ID><ELEMENT_SET_NO>999</ELEMENT_SET_NO><REV_AT_EPOCH>44227</REV_AT_EPOCH><BSTAR>.12531E-3</BSTAR><MEAN_MOTION_DOT>.399E-5</MEAN_MOTION_DOT><MEAN_MOTION_DDOT>0</MEAN_MOTION_DDOT></tleParameters></data></segment></body></omm>
<omm id="CCSDS_OMM_VERS" version="2.0">
<header><CREATION_DATE/><ORIGINATOR/></header><body><segment><metadata><OBJECT_NAME>IRIDIUM 42</OBJECT_NAME><OBJECT_ID>1997-077A</OBJECT_ID><CENTER_NAME>EARTH</CENTER_NAME><REF_FRAME>TEME</REF_FRAME><TIME_SYSTEM>UTC</TIME_SYSTEM><MEAN_ELEMENT_THEORY>SGP4</MEAN_ELEMENT_THEORY></metadata><data><meanElements><EPOCH>2025-05-22T12:55:02.749728</EPOCH><MEAN_MOTION>14.36332538</MEAN_MOTION><ECCENTRICITY>.0002184</ECCENTRICITY><INCLINATION>86.3966</INCLINATION><RA_OF_ASC_NODE>250.0791</RA_OF_ASC_NODE><ARG_OF_PERICENTER>114.8019</ARG_OF_PERICENTER><MEAN_ANOMALY>245.3405</MEAN_ANOMALY></meanElements><tleParameters><EPHEMERIS_TYPE>0</EPHEMERIS_TYPE><CLASSIFICATION_TYPE>U</CLASSIFICATION_TYPE><NORAD_CAT_ID>25077</NORAD_CAT_ID><ELEMENT_SET_NO>999</ELEMENT_SET_NO><REV_AT_EPOCH>43751</REV_AT_EPOCH><BSTAR>.11371E-3</BSTAR><MEAN_MOTION_DOT>.352E-5</MEAN_MOTION_DOT><MEAN_MOTION_DDOT>0</MEAN_MOTION_DDOT></tleParameters></data></segment></body></omm>
<omm id="CCSDS_OMM_VERS" version="2.0">
<header><CREATION_DATE/><ORIGINATOR/></header><body><segment><metadata><OBJECT_NAME>IRIDIUM 44</OBJECT_NAME><OBJECT_ID>1997-077B</OBJECT_ID><CENTER_NAME>EARTH</CENTER_NAME><REF_FRAME>TEME</REF_FRAME><TIME_SYSTEM>UTC</TIME_SYSTEM><MEAN_ELEMENT_THEORY>SGP4</MEAN_ELEMENT_THEORY></metadata><data><meanElements><EPOCH>2025-05-22T06:48:55.640448</EPOCH><MEAN_MOTION>14.40222646</MEAN_MOTION><ECCENTRICITY>.0004118</ECCENTRICITY><INCLINATION>86.3983</INCLINATION><RA_OF_ASC_NODE>232.1769</RA_OF_ASC_NODE><ARG_OF_PERICENTER>103.5236</ARG_OF_PERICENTER><MEAN_ANOMALY>256.6422</MEAN_ANOMALY></meanElements><tleParameters><EPHEMERIS_TYPE>0</EPHEMERIS_TYPE><CLASSIFICATION_TYPE>U</CLASSIFICATION_TYPE><NORAD_CAT_ID>25078</NORAD_CAT_ID><ELEMENT_SET_NO>999</ELEMENT_SET_NO><REV_AT_EPOCH>43997</REV_AT_EPOCH><BSTAR>.1211E-3</BSTAR><MEAN_MOTION_DOT>.403E-5</MEAN_MOTION_DOT><MEAN_MOTION_DDOT>0</MEAN_MOTION_DDOT></tleParameters></data></segment></body></omm>
<omm id="CCSDS_OMM_VERS" version="2.0">
<header><CREATION_DATE/><ORIGINATOR/></header><body><segment><metadata><OBJECT_NAME>IRIDIUM 45</OBJECT_NAME><OBJECT_ID>1997-082A</OBJECT_ID><CENTER_NAME>EARTH</CENTER_NAME><REF_FRAME>TEME</REF_FRAME><TIME_SYSTEM>UTC</TIME_SYSTEM><MEAN_ELEMENT_THEORY>SGP4</MEAN_ELEMENT_THEORY></metadata><data><meanElements><EPOCH>2025-05-22T06:46:24.245184</EPOCH><MEAN_MOTION>15.21364306</MEAN_MOTION><ECCENTRICITY>.0122089</ECCENTRICITY><INCLINATION>86.3596</INCLINATION><RA_OF_ASC_NODE>60.4621</RA_OF_ASC_NODE><ARG_OF_PERICENTER>69.2280</ARG_OF_PERICENTER><MEAN_ANOMALY>292.1994</MEAN_ANOMALY></meanElements><tleParameters><EPHEMERIS_TYPE>0</EPHEMERIS_TYPE><CLASSIFICATION_TYPE>U</CLASSIFICATION_TYPE><NORAD_CAT_ID>25104</NORAD_CAT_ID><ELEMENT_SET_NO>999</ELEMENT_SET_NO><REV_AT_EPOCH>44810</REV_AT_EPOCH><BSTAR>.70788E-3</BSTAR><MEAN_MOTION_DOT>.19533E-3</MEAN_MOTION_DOT><MEAN_MOTION_DDOT>0</MEAN_MOTION_DDOT></tleParameters></data></segment></body></omm>
<omm id="CCSDS_OMM_VERS" version="2.0">
<header><CREATION_DATE/><ORIGINATOR/></header><body><segment><metadata><OBJECT_NAME>IRIDIUM 24</OBJECT_NAME><OBJECT_ID>1997-082B</OBJECT_ID><CENTER_NAME>EARTH</CENTER_NAME><REF_FRAME>TEME</REF_FRAME><TIME_SYSTEM>UTC</TIME_SYSTEM><MEAN_ELEMENT_THEORY>SGP4</MEAN_ELEMENT_THEORY></metadata><data><meanElements><EPOCH>2025-05-22T08:38:05.066304</EPOCH><MEAN_MOTION>14.42074763</MEAN_MOTION><ECCENTRICITY>.0012081</ECCENTRICITY><INCLINATION>86.3891</INCLINATION><RA_OF_ASC_NODE>91.2555</RA_OF_ASC_NODE><ARG_OF_PERICENTER>152.8735</ARG_OF_PERICENTER><MEAN_ANOMALY>207.3099</MEAN_ANOMALY></meanElements><tleParameters><EPHEMERIS_TYPE>0</EPHEMERIS_TYPE><CLASSIFICATION_TYPE>U</CLASSIFICATION_TYPE><NORAD_CAT_ID>25105</NORAD_CAT_ID><ELEMENT_SET_NO>999</ELEMENT_SET_NO><REV_AT_EPOCH>43949</REV_AT_EPOCH><BSTAR>.1577E-3</BSTAR><MEAN_MOTION_DOT>.538E-5</MEAN_MOTION_DOT><MEAN_MOTION_DDOT>0</MEAN_MOTION_DDOT></tleParameters></data></segment></body></omm>
<omm id="CCSDS_OMM_VERS" version="2.0">
<header><CREATION_DATE/><ORIGINATOR/></header><body><segment><metadata><OBJECT_NAME>IRIDIUM 51</OBJECT_NAME><OBJECT_ID>1998-018A</OBJECT_ID><CENTER_NAME>EARTH</CENTER_NAME><REF_FRAME>TEME</REF_FRAME><TIME_SYSTEM>UTC</TIME_SYSTEM><MEAN_ELEMENT_THEORY>SGP4</MEAN_ELEMENT_THEORY></metadata><data><meanElements><EPOCH>2025-05-22T13:01:46.643808</EPOCH><MEAN_MOTION>15.38126211</MEAN_MOTION><ECCENTRICITY>.0088633</ECCENTRICITY><INCLINATION>86.3843</INCLINATION><RA_OF_ASC_NODE>68.5140</RA_OF_ASC_NODE><ARG_OF_PERICENTER>351.5027</ARG_OF_PERICENTER><MEAN_ANOMALY>8.4718</MEAN_ANOMALY></meanElements><tleParameters><EPHEMERIS_TYPE>0</EPHEMERIS_TYPE><CLASSIFICATION_TYPE>U</CLASSIFICATION_TYPE><NORAD_CAT_ID>25262</NORAD_CAT_ID><ELEMENT_SET_NO>999</ELEMENT_SET_NO><REV_AT_EPOCH>44308</REV_AT_EPOCH><BSTAR>.89172E-3</BSTAR><MEAN_MOTION_DOT>.38462E-3</MEAN_MOTION_DOT><MEAN_MOTION_DDOT>0</MEAN_MOTION_DDOT></tleParameters></data></segment></body></omm>
<omm id="CCSDS_OMM_VERS" version="2.0">
<header><CREATION_DATE/><ORIGINATOR/></header><body><segment><metadata><OBJECT_NAME>IRIDIUM 57</OBJECT_NAME><OBJECT_ID>1998-019B</OBJECT_ID><CENTER_NAME>EARTH</CENTER_NAME><REF_FRAME>TEME</REF_FRAME><TIME_SYSTEM>UTC</TIME_SYSTEM><MEAN_ELEMENT_THEORY>SGP4</MEAN_ELEMENT_THEORY></metadata><data><meanElements><EPOCH>2025-05-22T12:38:49.021728</EPOCH><MEAN_MOTION>14.35876971</MEAN_MOTION><ECCENTRICITY>.0002315</ECCENTRICITY><INCLINATION>86.3967</INCLINATION><RA_OF_ASC_NODE>156.0114</RA_OF_ASC_NODE><ARG_OF_PERICENTER>92.4658</ARG_OF_PERICENTER><MEAN_ANOMALY>267.6804</MEAN_ANOMALY></meanElements><tleParameters><EPHEMERIS_TYPE>0</EPHEMERIS_TYPE><CLASSIFICATION_TYPE>U</CLASSIFICATION_TYPE><NORAD_CAT_ID>25273</NORAD_CAT_ID><ELEMENT_SET_NO>999</ELEMENT_SET_NO><REV_AT_EPOCH>42110</REV_AT_EPOCH><BSTAR>.11028E-3</BSTAR><MEAN_MOTION_DOT>.339E-5</MEAN_MOTION_DOT><MEAN_MOTION_DDOT>0</MEAN_MOTION_DDOT></tleParameters></data></segment></body></omm>

</ndm>
